ONEWEB-0045             
1 45151U 20008W   24126.88664000  .00000592  00000+0  16338-2 0  9991
2 45151  87.8992 174.6712 0002124  99.9140 260.2228 13.11418027209180
ONEWEB-0047             
1 45152U 20008X   24126.86937384  .00000311  00000+0  85382-3 0  9993
2 45152  87.8971 189.7798 0002007  98.8749 261.2606 13.10369295207058
ONEWEB-0048             
1 45153U 20008Y   24126.86439931  .00000500  00000+0  13973-2 0  9995
2 45153  87.8976 189.7955 0002021  97.5271 262.6086 13.10370418206663
ONEWEB-0049             
1 45154U 20008Z   24126.86606030  .00000449  00000+0  12503-2 0  9992
2 45154  87.8980 189.7731 0001972  82.6165 277.5186 13.10369400206881
ONEWEB-0051             
1 45155U 20008AA  24127.19019447  .00000526  00000+0  14471-2 0  9992
2 45155  87.8994 174.6526 0002295  98.6228 261.5160 13.11419386210686
ONEWEB-0052             
1 45156U 20008AB  24126.93910077  .00000577  00000+0  16162-2 0  9998
2 45156  87.8973 189.7334 0001855  84.0256 276.1082 13.10370976206803
ONEWEB-0053             
1 45157U 20008AC  24127.14990855  .00000404  00000+0  11204-2 0  9996
2 45157  87.8979 189.7434 0001982  94.8035 265.3319 13.10374880207561
ONEWEB-0054             
1 45158U 20008AD  24126.87933493 -.00000188  00000+0 -57407-3 0  9998
2 45158  87.8971 189.7792 0002162  99.2051 260.9321 13.10371565206884
